{
    "links": {
        "self": "http://www.neowsapp.com/rest/v1/neo/3405069?api_key=iIulBulltgU6a56xZRHN4H3l9WmuAYTsLGpBGhQ2"
    },
    "id": "3405069",
    "neo_reference_id": "3405069",
    "name": "(2008 EM6)",
    "designation": "2008 EM6",
    "nasa_jpl_url": "http://ssd.jpl.nasa.gov/sbdb.cgi?sstr=3405069",
    "absolute_magnitude_h": 25.7,
    "estimated_diameter": {
        "kilometers": {
            "estimated_diameter_min": 0.0192555078,
            "estimated_diameter_max": 0.0430566244
        },
        "meters": {
            "estimated_diameter_min": 19.2555078188,
            "estimated_diameter_max": 43.0566244241
        },
        "miles": {
            "estimated_diameter_min": 0.0119648141,
            "estimated_diameter_max": 0.0267541378
        },
        "feet": {
            "estimated_diameter_min": 63.1742402722,
            "estimated_diameter_max": 141.2618956756
        }
    },
    "is_potentially_hazardous_asteroid": false,
    "close_approach_data": [
        {
            "close_approach_date": "2008-03-18",
            "close_approach_date_full": "2008-Mar-18 07:42",
            "epoch_date_close_approach": 1205826120000,
            "relative_velocity": {
                "kilometers_per_second": "11.1805976957",
                "kilometers_per_hour": "40250.1517044365",
                "miles_per_hour": "25009.8789854594"
            },
            "miss_distance": {
                "astronomical": "0.046964507",
                "lunar": "18.269193223",
                "kilometers": "7025790.21280009",
                "miles": "4365623.601577642"
            },
            "orbiting_body": "Earth"
        }
    ],
    "orbital_data": {
        "orbit_id": "6",
        "orbit_determination_date": "2017-04-06 09:04:07",
        "first_observation_date": "2008-03-05",
        "last_observation_date": "2008-03-06",
        "data_arc_in_days": 1,
        "observations_used": 18,
        "orbit_uncertainty": "9",
        "minimum_orbit_intersection": ".045577",
        "jupiter_tisserand_invariant": "3.854",
        "epoch_osculation": "2454531.5",
        "eccentricity": ".4893551296124316",
        "semi_major_axis": "1.838700271558512",
        "inclination": "9.149709092184073",
        "ascending_node_longitude": "165.2056212573867",
        "orbital_period": "910.6779834279739",
        "perihelion_distance": ".938922861851583",
        "perihelion_argument": "54.64693070605941",
        "aphelion_distance": "2.738477681265441",
        "perihelion_time": "2454576.771573754779",
        "mean_anomaly": "342.1036998277125",
        "mean_motion": ".3953098752260246",
        "equinox": "J2000",
        "orbit_class": {
            "orbit_class_type": "APO",
            "orbit_class_description": "Near-Earth asteroid orbits which cross the Earth’s orbit similar to that of 1862 Apollo",
            "orbit_class_range": "a (semi-major axis) > 1.0 AU; q (perihelion) < 1.017 AU"
        }
    },
    "is_sentry_object": false
}